SINOD-D 3               
1 40977U 15058P   26063.45418890  .00008415  00000+0  71387-3 0  9998
2 40977  64.7712 242.6535 0118848 100.3060 261.1478 14.93139115 99119
HORYU-4                 
1 41340U 16012D   26063.41986323  .00119691  00000+0  13090-2 0  9996
2 41340  30.9914 104.8433 0002167  94.2577 265.8323 15.61823751554285
RAVAN                   
1 41849U 16067B   26063.20616988  .00059799  00000+0  12348-2 0  9991
2 41849  98.0054 301.3560 0006900  23.8187 336.3378 15.45624462511432
CELTEE 1                
1 41850U 16067C   26063.54270901  .00009363  00000+0  45724-3 0  9998
2 41850  98.0821 282.9638 0000673 130.6555 229.4736 15.18510279509991
OPTICUBE 04             
1 41851U 16067D   26063.53733178  .00003584  00000+0  22956-3 0  9999
2 41851  98.0803 270.3167 0016994 110.1131 250.1926 15.09148302509385
AEROCUBE 8D             
1 41852U 16067E   26063.14265440  .00012915  00000+0  55601-3 0  9990
2 41852  98.0837 285.3504 0004474 125.5574 234.6079 15.22750960510073
AEROCUBE 8C             
1 41853U 16067F   26063.57806343  .00012162  00000+0  52014-3 0  9990
2 41853  98.0702 283.1851 0006659  68.0669 292.1273 15.22983419510138
CORVUS BC2              
1 42846U 17042X   26063.67637759  .00006811  00000+0  47593-3 0  9991
2 42846  97.3929 229.2071 0014271 109.0951 251.1823 15.05547185471339
CORVUS BC1              
1 42847U 17042Y   26063.41780098  .00005899  00000+0  41060-3 0  9997
2 42847  97.3955 229.7013 0013253  88.0691 272.2054 15.05759150471322
MAKERSAT 0              
1 43016U 17073D   26062.61045766  .00030771  00000+0  93724-3 0  9998
2 43016  97.4798 304.5701 0116176 287.7327  71.1259 15.27450576450329
SIRION PATHFINDER-2     
1 43759U 18099B   26063.56083847  .00008547  00000+0  48102-3 0  9994
2 43759  97.4394 115.1078 0007585 307.4472  52.6069 15.13462920396796
CORVUS BC4              
1 43767U 18099K   26063.56200543  .00006651  00000+0  39555-3 0  9993
2 43767  97.4212 109.5953 0008562  13.9426 346.2040 15.11547791396594
SPACEBEE-7              
1 43816U 18099BL  26063.18985420  .01688633  20345-2  22288-2 0  9998
2 43816  97.4390 149.6974 0008435 272.4852  87.5464 16.07262832398333
M2 PATHFINDER           
1 45727U 20037E   26063.75648616  .00004131  00000+0  30203-3 0  9996
2 45727  97.8143 253.8248 0012360 142.1027 218.1070 15.04135680309790
NETSAT-4                
1 46504U 20068U   26063.45852568  .00029620  00000+0  73947-3 0  9996
2 46504  97.8637  63.5684 0005323 359.5717   0.5522 15.40120174299631
NETSAT-3                
1 46505U 20068V   26063.50943243  .00025559  00000+0  66733-3 0  9996
2 46505  97.8672  61.9901 0005843  16.6906 343.4529 15.38775978299566
NETSAT-1                
1 46506U 20068W   26063.45951606  .00024490  00000+0  79752-3 0  9991
2 46506  97.8739  57.4273 0006517  34.8834 325.2832 15.31826261299250
