[{"OBJECT_NAME":"SINOD-D 3","OBJECT_ID":"2015-058P","EPOCH":"2026-03-04T10:54:01.920960","MEAN_MOTION":14.93139115,"ECCENTRICITY":0.01188483,"INCLINATION":64.7712,"RA_OF_ASC_NODE":242.6535,"ARG_OF_PERICENTER":100.306,"MEAN_ANOMALY":261.1478,"EPHEMERIS_TYPE":0,"CLASSIFICATION_TYPE":"U","NORAD_CAT_ID":40977,"ELEMENT_SET_NO":999,"REV_AT_EPOCH":9911,"BSTAR":0.00071386596,"MEAN_MOTION_DOT":8.415e-5,"MEAN_MOTION_DDOT":0},{"OBJECT_NAME":"HORYU-4","OBJECT_ID":"2016-012D","EPOCH":"2026-03-04T10:04:36.183072","MEAN_MOTION":15.61823751,"ECCENTRICITY":0.00021677,"INCLINATION":30.9914,"RA_OF_ASC_NODE":104.8433,"ARG_OF_PERICENTER":94.2577,"MEAN_ANOMALY":265.8323,"EPHEMERIS_TYPE":0,"CLASSIFICATION_TYPE":"U","NORAD_CAT_ID":41340,"ELEMENT_SET_NO":999,"REV_AT_EPOCH":55428,"BSTAR":0.001309025,"MEAN_MOTION_DOT":0.00119691,"MEAN_MOTION_DDOT":0},{"OBJECT_NAME":"RAVAN","OBJECT_ID":"2016-067B","EPOCH":"2026-03-04T04:56:53.077632","MEAN_MOTION":15.45624462,"ECCENTRICITY":0.00069005,"INCLINATION":98.0054,"RA_OF_ASC_NODE":301.356,"ARG_OF_PERICENTER":23.8187,"MEAN_ANOMALY":336.3378,"EPHEMERIS_TYPE":0,"CLASSIFICATION_TYPE":"U","NORAD_CAT_ID":41849,"ELEMENT_SET_NO":999,"REV_AT_EPOCH":51143,"BSTAR":0.0012348499,"MEAN_MOTION_DOT":0.00059799,"MEAN_MOTION_DDOT":0},{"OBJECT_NAME":"CELTEE 1","OBJECT_ID":"2016-067C","EPOCH":"2026-03-04T13:01:30.058464","MEAN_MOTION":15.18510279,"ECCENTRICITY":6.73e-5,"INCLINATION":98.0821,"RA_OF_ASC_NODE":282.9638,"ARG_OF_PERICENTER":130.6555,"MEAN_ANOMALY":229.4736,"EPHEMERIS_TYPE":0,"CLASSIFICATION_TYPE":"U","NORAD_CAT_ID":41850,"ELEMENT_SET_NO":999,"REV_AT_EPOCH":50999,"BSTAR":0.00045724,"MEAN_MOTION_DOT":9.363e-5,"MEAN_MOTION_DDOT":0},{"OBJECT_NAME":"OPTICUBE 04","OBJECT_ID":"2016-067D","EPOCH":"2026-03-04T12:53:45.465792","MEAN_MOTION":15.09148302,"ECCENTRICITY":0.0016994,"INCLINATION":98.0803,"RA_OF_ASC_NODE":270.3167,"ARG_OF_PERICENTER":110.1131,"MEAN_ANOMALY":250.1926,"EPHEMERIS_TYPE":0,"CLASSIFICATION_TYPE":"U","NORAD_CAT_ID":41851,"ELEMENT_SET_NO":999,"REV_AT_EPOCH":50938,"BSTAR":0.00022956,"MEAN_MOTION_DOT":3.584e-5,"MEAN_MOTION_DDOT":0},{"OBJECT_NAME":"AEROCUBE 8D","OBJECT_ID":"2016-067E","EPOCH":"2026-03-04T03:25:25.340160","MEAN_MOTION":15.2275096,"ECCENTRICITY":0.00044744,"INCLINATION":98.0837,"RA_OF_ASC_NODE":285.3504,"ARG_OF_PERICENTER":125.5574,"MEAN_ANOMALY":234.6079,"EPHEMERIS_TYPE":0,"CLASSIFICATION_TYPE":"U","NORAD_CAT_ID":41852,"ELEMENT_SET_NO":999,"REV_AT_EPOCH":51007,"BSTAR":0.00055601314,"MEAN_MOTION_DOT":0.00012915,"MEAN_MOTION_DDOT":0},{"OBJECT_NAME":"AEROCUBE 8C","OBJECT_ID":"2016-067F","EPOCH":"2026-03-04T13:52:24.680352","MEAN_MOTION":15.22983419,"ECCENTRICITY":0.0006659,"INCLINATION":98.0702,"RA_OF_ASC_NODE":283.1851,"ARG_OF_PERICENTER":68.0669,"MEAN_ANOMALY":292.1273,"EPHEMERIS_TYPE":0,"CLASSIFICATION_TYPE":"U","NORAD_CAT_ID":41853,"ELEMENT_SET_NO":999,"REV_AT_EPOCH":51013,"BSTAR":0.00052014,"MEAN_MOTION_DOT":0.00012162,"MEAN_MOTION_DDOT":0},{"OBJECT_NAME":"CORVUS BC2","OBJECT_ID":"2017-042X","EPOCH":"2026-03-04T16:13:59.023776","MEAN_MOTION":15.05547185,"ECCENTRICITY":0.0014271,"INCLINATION":97.3929,"RA_OF_ASC_NODE":229.2071,"ARG_OF_PERICENTER":109.0951,"MEAN_ANOMALY":251.1823,"EPHEMERIS_TYPE":0,"CLASSIFICATION_TYPE":"U","NORAD_CAT_ID":42846,"ELEMENT_SET_NO":999,"REV_AT_EPOCH":47133,"BSTAR":0.00047593,"MEAN_MOTION_DOT":6.811e-5,"MEAN_MOTION_DDOT":0},{"OBJECT_NAME":"CORVUS BC1","OBJECT_ID":"2017-042Y","EPOCH":"2026-03-04T10:01:38.004672","MEAN_MOTION":15.0575915,"ECCENTRICITY":0.00132531,"INCLINATION":97.3955,"RA_OF_ASC_NODE":229.7013,"ARG_OF_PERICENTER":88.0691,"MEAN_ANOMALY":272.2054,"EPHEMERIS_TYPE":0,"CLASSIFICATION_TYPE":"U","NORAD_CAT_ID":42847,"ELEMENT_SET_NO":999,"REV_AT_EPOCH":47132,"BSTAR":0.00041059674,"MEAN_MOTION_DOT":5.899e-5,"MEAN_MOTION_DDOT":0},{"OBJECT_NAME":"MAKERSAT 0","OBJECT_ID":"2017-073D","EPOCH":"2026-03-03T14:39:03.541824","MEAN_MOTION":15.27450576,"ECCENTRICITY":0.0116176,"INCLINATION":97.4798,"RA_OF_ASC_NODE":304.5701,"ARG_OF_PERICENTER":287.7327,"MEAN_ANOMALY":71.1259,"EPHEMERIS_TYPE":0,"CLASSIFICATION_TYPE":"U","NORAD_CAT_ID":43016,"ELEMENT_SET_NO":999,"REV_AT_EPOCH":45032,"BSTAR":0.00093724,"MEAN_MOTION_DOT":0.00030771,"MEAN_MOTION_DDOT":0},{"OBJECT_NAME":"SIRION PATHFINDER-2","OBJECT_ID":"2018-099B","EPOCH":"2026-03-04T13:27:36.443808","MEAN_MOTION":15.1346292,"ECCENTRICITY":0.0007585,"INCLINATION":97.4394,"RA_OF_ASC_NODE":115.1078,"ARG_OF_PERICENTER":307.4472,"MEAN_ANOMALY":52.6069,"EPHEMERIS_TYPE":0,"CLASSIFICATION_TYPE":"U","NORAD_CAT_ID":43759,"ELEMENT_SET_NO":999,"REV_AT_EPOCH":39679,"BSTAR":0.00048102,"MEAN_MOTION_DOT":8.547e-5,"MEAN_MOTION_DDOT":0},{"OBJECT_NAME":"CORVUS BC4","OBJECT_ID":"2018-099K","EPOCH":"2026-03-04T13:29:17.269152","MEAN_MOTION":15.11547791,"ECCENTRICITY":0.0008562,"INCLINATION":97.4212,"RA_OF_ASC_NODE":109.5953,"ARG_OF_PERICENTER":13.9426,"MEAN_ANOMALY":346.204,"EPHEMERIS_TYPE":0,"CLASSIFICATION_TYPE":"U","NORAD_CAT_ID":43767,"ELEMENT_SET_NO":999,"REV_AT_EPOCH":39659,"BSTAR":0.00039555,"MEAN_MOTION_DOT":6.651e-5,"MEAN_MOTION_DDOT":0},{"OBJECT_NAME":"SPACEBEE-7","OBJECT_ID":"2018-099BL","EPOCH":"2026-03-04T04:33:23.402880","MEAN_MOTION":16.07262832,"ECCENTRICITY":0.00084354,"INCLINATION":97.439,"RA_OF_ASC_NODE":149.6974,"ARG_OF_PERICENTER":272.4852,"MEAN_ANOMALY":87.5464,"EPHEMERIS_TYPE":0,"CLASSIFICATION_TYPE":"U","NORAD_CAT_ID":43816,"ELEMENT_SET_NO":999,"REV_AT_EPOCH":39833,"BSTAR":0.0022287651,"MEAN_MOTION_DOT":0.01688633,"MEAN_MOTION_DDOT":0.0020344783},{"OBJECT_NAME":"M2 PATHFINDER","OBJECT_ID":"2020-037E","EPOCH":"2026-03-04T18:09:20.404224","MEAN_MOTION":15.0413568,"ECCENTRICITY":0.001236,"INCLINATION":97.8143,"RA_OF_ASC_NODE":253.8248,"ARG_OF_PERICENTER":142.1027,"MEAN_ANOMALY":218.107,"EPHEMERIS_TYPE":0,"CLASSIFICATION_TYPE":"U","NORAD_CAT_ID":45727,"ELEMENT_SET_NO":999,"REV_AT_EPOCH":30979,"BSTAR":0.00030203,"MEAN_MOTION_DOT":4.131e-5,"MEAN_MOTION_DDOT":0},{"OBJECT_NAME":"NETSAT-4","OBJECT_ID":"2020-068U","EPOCH":"2026-03-04T11:00:16.618752","MEAN_MOTION":15.40120174,"ECCENTRICITY":0.00053235,"INCLINATION":97.8637,"RA_OF_ASC_NODE":63.5684,"ARG_OF_PERICENTER":359.5717,"MEAN_ANOMALY":0.5522,"EPHEMERIS_TYPE":0,"CLASSIFICATION_TYPE":"U","NORAD_CAT_ID":46504,"ELEMENT_SET_NO":999,"REV_AT_EPOCH":29963,"BSTAR":0.00073946699,"MEAN_MOTION_DOT":0.0002962,"MEAN_MOTION_DDOT":0},{"OBJECT_NAME":"NETSAT-3","OBJECT_ID":"2020-068V","EPOCH":"2026-03-04T12:13:34.961952","MEAN_MOTION":15.38775978,"ECCENTRICITY":0.0005843,"INCLINATION":97.8672,"RA_OF_ASC_NODE":61.9901,"ARG_OF_PERICENTER":16.6906,"MEAN_ANOMALY":343.4529,"EPHEMERIS_TYPE":0,"CLASSIFICATION_TYPE":"U","NORAD_CAT_ID":46505,"ELEMENT_SET_NO":999,"REV_AT_EPOCH":29956,"BSTAR":0.00066733,"MEAN_MOTION_DOT":0.00025559,"MEAN_MOTION_DDOT":0},{"OBJECT_NAME":"NETSAT-1","OBJECT_ID":"2020-068W","EPOCH":"2026-03-04T11:01:42.187584","MEAN_MOTION":15.31826261,"ECCENTRICITY":0.00065179,"INCLINATION":97.8739,"RA_OF_ASC_NODE":57.4273,"ARG_OF_PERICENTER":34.8834,"MEAN_ANOMALY":325.2832,"EPHEMERIS_TYPE":0,"CLASSIFICATION_TYPE":"U","NORAD_CAT_ID":46506,"ELEMENT_SET_NO":999,"REV_AT_EPOCH":29925,"BSTAR":0.00079751895,"MEAN_MOTION_DOT":0.0002449,"MEAN_MOTION_DDOT":0}]
